      2.10          N: GNSS NAV DATA                        RINEX VERSION / TYPE
fic2rin                                 08/24/2022 00:17:31 PGM / RUN BY / DATE
                                                            END OF HEADER
24 22  8 23  9 59 44.0  .159618444741D-03 -.119371179608D-10  .000000000000D+00
     .440000000000D+02  .205312500000D+02  .537915263473D-08  .704810051379D+00
     .104494392872D-05  .128300894285D-01  .583007931709D-05  .515367053223D+04
     .208784000000D+06 -.141561031342D-06 -.224491106823D+01  .121071934700D-06
     .934065443072D+00  .254468750000D+03  .829873026423D+00 -.855964225774D-08
     .932181686252D-10  .100000000000D+01  .222400000000D+04  .000000000000D+00
     .240000000000D+01  .000000000000D+00  .279396772385D-08  .440000000000D+02
     .201600000000D+06  .400000000000D+01
5  22  8 23 10  0  0.0 -.939299352467D-04 -.136424205266D-11  .000000000000D+00
     .320000000000D+02 -.105375000000D+03  .439589739249D-08  .294128893002D+01
    -.547617673874D-05  .614009494893D-02  .545941293240D-05  .515377937126D+04
     .208800000000D+06  .465661287308D-07  .198308233234D+01 -.670552253723D-07
     .961929257518D+00  .273968750000D+03  .109323789944D+01 -.798283251702D-08
    -.245010205659D-09  .100000000000D+01  .222400000000D+04  .000000000000D+00
     .240000000000D+01  .000000000000D+00 -.111758708954D-07  .320000000000D+02
     .201600000000D+06  .400000000000D+01
3  22  8 23 10  0  0.0 -.337557401508D-03 -.761701812735D-11  .000000000000D+00
     .330000000000D+02 -.116468750000D+03  .417303096635D-08 -.729590626995D+00
    -.610202550888D-05  .449200067669D-02  .633299350739D-05  .515357111549D+04
     .208800000000D+06 -.558793544769D-08  .202599050081D+01  .931322574615D-07
     .974933380631D+00  .263125000000D+03  .103799915144D+01 -.798533262116D-08
    -.267511142913D-09  .100000000000D+01  .222400000000D+04  .000000000000D+00
     .240000000000D+01  .000000000000D+00  .186264514923D-08  .330000000000D+02
     .201600000000D+06  .400000000000D+01
2  22  8 23 10  0  0.0 -.648321118206D-03  .113686837722D-11  .000000000000D+00
     .350000000000D+02  .288437500000D+02  .472912555849D-08  .191078410017D+00
     .152736902237D-05  .199792592321D-01  .264495611191D-05  .515488445854D+04
     .208800000000D+06 -.193715095520D-06  .899208166304D+00 -.100582838058D-06
     .966289638459D+00  .334937500000D+03 -.139760938002D+01 -.870893419064D-08
     .300012496725D-10  .100000000000D+01  .222400000000D+04  .000000000000D+00
     .240000000000D+01  .000000000000D+00 -.172294676304D-07  .350000000000D+02
     .201600000000D+06  .400000000000D+01
8  22  8 23 10  0  0.0 -.816280953586D-04 -.147792889038D-11  .000000000000D+00
     .400000000000D+02  .109000000000D+03  .441054085959D-08  .260325827186D+01
     .567920506001D-05  .744091754314D-02  .800378620625D-05  .515358388519D+04
     .208800000000D+06 -.193715095520D-06 -.914818909537D-01  .204890966415D-07
     .962775232321D+00  .225406250000D+03  .165549958495D+00 -.787532803902D-08
     .104290058385D-09  .100000000000D+01  .222400000000D+04  .000000000000D+00
     .240000000000D+01  .000000000000D+00  .512227416039D-08  .400000000000D+02
     .201600000000D+06  .400000000000D+01
7  22  8 23 10  0  0.0  .312831718475D-03 -.238742359215D-11  .000000000000D+00
     .690000000000D+02  .159062500000D+02  .505806783168D-08 -.258510670910D+00
     .103190541267D-05  .163854997372D-01  .594742596149D-05  .515363288879D+04
     .208800000000D+06  .353902578354D-07 -.215895443454D+01  .262632966042D-06
     .950475265807D+00  .262437500000D+03 -.224524326621D+01 -.844106588999D-08
     .232866842696D-09  .100000000000D+01  .222400000000D+04  .000000000000D+00
     .240000000000D+01  .000000000000D+00 -.111758708954D-07  .690000000000D+02
     .201600000000D+06  .400000000000D+01
4  22  8 23 10  0  0.0 -.129179097712D-03  .522959453519D-11  .000000000000D+00
     .150000000000D+03 -.315312500000D+02  .423053336155D-08  .227810880488D+01
    -.159442424774D-05  .195235828869D-02  .977702438831D-05  .515376260567D+04
     .208800000000D+06 -.558793544769D-08  .310724741570D+01  .130385160446D-07
     .962130591618D+00  .193125000000D+03 -.306930932124D+01 -.770424948434D-08
     .342871424828D-09  .100000000000D+01  .222400000000D+04  .000000000000D+00
     .240000000000D+01  .000000000000D+00 -.465661287308D-08  .150000000000D+03
     .201600000000D+06  .400000000000D+01
18 22  8 23 10  0  0.0  .727390870452D-04 -.122781784739D-10  .000000000000D+00
     .700000000000D+01  .809375000000D+01  .451590239118D-08  .702786946857D+00
     .298023223877D-06  .273498392198D-02  .148266553879D-05  .515372538567D+04
     .208800000000D+06 -.931322574615D-08  .997432744700D+00 -.465661287308D-07
     .972088576968D+00  .352218750000D+03  .303923901378D+01 -.828070206734D-08
    -.932181686252D-10  .100000000000D+01  .222400000000D+04  .000000000000D+00
     .240000000000D+01  .000000000000D+00 -.838190317154D-08  .700000000000D+01
     .201600000000D+06  .400000000000D+01
12 22  8 23 10  0  0.0 -.266745686531D-03 -.602540239925D-11  .000000000000D+00
     .104000000000D+03  .161875000000D+02  .443339895458D-08 -.942499957238D+00
     .107660889626D-05  .849496282171D-02  .881776213646D-05  .515375046539D+04
     .208800000000D+06 -.484287738800D-07 -.104480776528D+01  .180676579475D-06
     .968001921165D+00  .220062500000D+03  .131597580969D+01 -.793104464556D-08
    -.313227332890D-09  .100000000000D+01  .222400000000D+04  .000000000000D+00
     .340000000000D+01  .000000000000D+00 -.125728547573D-07  .104000000000D+03
     .201600000000D+06  .400000000000D+01
31 22  8 23 10  0  0.0 -.190689228475D-03 -.136424205266D-11  .000000000000D+00
     .220000000000D+02  .113750000000D+02  .485841665827D-08 -.789558311816D+00
     .756233930588D-06  .104456359986D-01  .541284680367D-05  .515355885315D+04
     .208800000000D+06  .242143869400D-06 -.214008803587D+01  .279396772385D-07
     .954633810867D+00  .265468750000D+03  .412636494389D+00 -.817284043161D-08
     .139648674071D-09  .100000000000D+01  .222400000000D+04  .000000000000D+00
     .240000000000D+01  .000000000000D+00 -.135041773319D-07  .220000000000D+02
     .201600000000D+06  .400000000000D+01
32 22  8 23 10  0  0.0 -.211878679693D-03 -.108002495836D-10  .000000000000D+00
     .150000000000D+02 -.251562500000D+02  .417338812408D-08 -.295380065832D+01
    -.123493373394D-05  .605977152009D-02  .990927219391D-05  .515363831711D+04
     .208800000000D+06 -.298023223877D-07  .306479929402D+01 -.167638063431D-07
     .959000504300D+00  .184718750000D+03 -.228761761732D+01 -.761924594361D-08
     .425732019162D-09  .100000000000D+01  .222400000000D+04  .000000000000D+00
     .240000000000D+01  .000000000000D+00  .465661287308D-09  .150000000000D+02
     .201600000000D+06  .400000000000D+01
16 22  8 23 10  0  0.0 -.521620735526D-03 -.147792889038D-11  .000000000000D+00
     .920000000000D+02  .251562500000D+02  .428446417942D-08 -.273270886445D+01
     .983476638794D-06  .127286051866D-01  .902451574802D-05  .515369964981D+04
     .208800000000D+06  .651925802231D-07 -.102632070128D+01 -.268220901489D-06
     .967860830031D+00  .210687500000D+03  .732093325803D+00 -.759853079502D-08
    -.308227124611D-09  .100000000000D+01  .222400000000D+04  .000000000000D+00
     .340000000000D+01  .000000000000D+00 -.102445483208D-07  .920000000000D+02
     .201600000000D+06  .400000000000D+01
10 22  8 23 10  0  0.0 -.538055319339D-03 -.135287336889D-10  .000000000000D+00
     .750000000000D+02 -.109156250000D+03  .401052419729D-08 -.161246249390D+01
    -.568293035030D-05  .780816131737D-02  .665150582790D-05  .515368606949D+04
     .208800000000D+06  .968575477600D-07  .202327116724D+01 -.165775418282D-06
     .974721832437D+00  .260281250000D+03 -.251029469066D+01 -.774032241550D-08
    -.208222959036D-09  .100000000000D+01  .222400000000D+04  .000000000000D+00
     .240000000000D+01  .000000000000D+00  .232830643654D-08  .750000000000D+02
     .201600000000D+06  .400000000000D+01
6  22  8 23 10  0  0.0  .435419846326D-03  .137561073643D-10  .000000000000D+00
     .173000000000D+03  .223437500000D+02  .414052961254D-08  .621104339512D+00
     .105611979961D-05  .245314533822D-02  .209175050259D-05  .515378355217D+04
     .208800000000D+06 -.186264514923D-08  .984117540834D+00 -.931322574615D-08
     .987568719653D+00  .354187500000D+03 -.899133336581D+00 -.808355099806D-08
     .607168148133D-11  .100000000000D+01  .222400000000D+04  .000000000000D+00
     .240000000000D+01  .000000000000D+00  .372529029846D-08  .173000000000D+03
     .201600000000D+06  .400000000000D+01
13 22  8 23 10  0  0.0  .373332295567D-03  .738964445191D-11  .000000000000D+00
     .610000000000D+02 -.160625000000D+02  .404373986657D-08  .216347216695D+01
    -.892207026482D-06  .632211787160D-02  .952929258347D-05  .515368155479D+04
     .208800000000D+06 -.316649675369D-07 -.307458907304D+01 -.160187482834D-06
     .969405781242D+00  .200718750000D+03  .925690468209D+00 -.766139055624D-08
     .420731810883D-09  .100000000000D+01  .222400000000D+04  .000000000000D+00
     .240000000000D+01  .000000000000D+00 -.111758708954D-07  .610000000000D+02
     .201600000000D+06  .400000000000D+01
11 22  8 23 10  0  0.0 -.122659839690D-04 -.159161572810D-11  .000000000000D+00
     .340000000000D+02  .159687500000D+02  .468626663039D-08  .242933092176D+01
     .838190317154D-06  .663430080749D-03  .158697366714D-05  .515362447929D+04
     .208800000000D+06 -.111758708954D-07  .103177394786D+01  .689178705215D-07
     .963474270171D+00  .351312500000D+03  .302507865874D+01 -.834641909043D-08
     .189293599124D-10  .100000000000D+01  .222400000000D+04  .000000000000D+00
     .240000000000D+01  .000000000000D+00 -.838190317154D-08  .546000000000D+03
     .201600000000D+06  .400000000000D+01
